start=new Date('2022-07-27T00:00:00.000Z').valueOf();
sats=[{"MEAN_MOTION_DOT":"-0.00000638","INCLINATION":"69.9986","REF_FRAME":"TEME","COUNTRY_CODE":"US","OBJECT_NAME":"STARLINK-3096","ECCENTRICITY":"0.00031390","OBJECT_ID":"2021-082B","MEAN_MOTION":"14.98324615","ARG_OF_PERICENTER":"251.9400","LAUNCH_DATE":"2021-09-14","SITE":"AFWTR","MEAN_MOTION_DDOT":"0.0000000000000","CENTER_NAME":"EARTH","OBJECT_TYPE":"PAYLOAD","EPHEMERIS_TYPE":"0","CLASSIFICATION_TYPE":"U","REV_AT_EPOCH":"4895","BSTAR":"-0.00004566200000","SEMIMAJOR_AXIS":"6950.210","TLE_LINE2":"2 49131  69.9986 347.4514 0003139 251.9400 108.1418 14.98324615 48954","TIME_SYSTEM":"UTC","FILE":"3522469","RA_OF_ASC_NODE":"347.4514","RCS_SIZE":"LARGE","APOAPSIS":"574.256","GP_ID":"208930257","MEAN_ELEMENT_THEORY":"SGP4","ELEMENT_SET_NO":"999","TLE_LINE1":"1 49131U 21082B   22207.77951947 -.00000638  00000-0 -45662-4 0  9999","MEAN_ANOMALY":"108.1418","EPOCH":"2022-07-26T18:42:30.482208","DECAY_DATE":null,"PERIAPSIS":"569.893","NORAD_CAT_ID":"49131","PERIOD":"96.107"},{"TLE_LINE1":"1 49132U 21082C   22207.87906474  .00000020  00000-0  95145-5 0  9991","ELEMENT_SET_NO":"999","MEAN_ANOMALY":"102.7620","DECAY_DATE":null,"EPOCH":"2022-07-26T21:05:51.193536","NORAD_CAT_ID":"49132","PERIOD":"96.107","PERIAPSIS":"569.771","TLE_LINE2":"2 49132  69.9992  27.1930 0003287 257.3171 102.7620 14.98330694 47986","SEMIMAJOR_AXIS":"6950.191","REV_AT_EPOCH":"4798","BSTAR":"0.00000951450000","APOAPSIS":"574.340","GP_ID":"208931509","FILE":"3522469","TIME_SYSTEM":"UTC","RCS_SIZE":"LARGE","RA_OF_ASC_NODE":"27.1930","MEAN_ELEMENT_THEORY":"SGP4","MEAN_MOTION_DDOT":"0.0000000000000","SITE":"AFWTR","LAUNCH_DATE":"2021-09-14","CENTER_NAME":"EARTH","EPHEMERIS_TYPE":"0","CLASSIFICATION_TYPE":"U","OBJECT_TYPE":"PAYLOAD","MEAN_MOTION_DOT":"0.00000020","OBJECT_NAME":"STARLINK-3090","COUNTRY_CODE":"US","INCLINATION":"69.9992","REF_FRAME":"TEME","MEAN_MOTION":"14.98330694","ARG_OF_PERICENTER":"257.3171","ECCENTRICITY":"0.00032870","OBJECT_ID":"2021-082C"},{"OBJECT_TYPE":"PAYLOAD","CLASSIFICATION_TYPE":"U","EPHEMERIS_TYPE":"0","LAUNCH_DATE":"2021-09-14","MEAN_MOTION_DDOT":"0.0000000000000","SITE":"AFWTR","CENTER_NAME":"EARTH","OBJECT_ID":"2021-082D","ECCENTRICITY":"0.00031080","ARG_OF_PERICENTER":"253.3297","MEAN_MOTION":"14.98336218","MEAN_MOTION_DOT":"0.00000266","REF_FRAME":"TEME","INCLINATION":"69.9999","COUNTRY_CODE":"US","OBJECT_NAME":"STARLINK-3077","EPOCH":"2022-07-26T20:58:58.458144","DECAY_DATE":null,"PERIAPSIS":"569.879","PERIOD":"96.107","NORAD_CAT_ID":"49133","ELEMENT_SET_NO":"999","TLE_LINE1":"1 49133U 21082D   22207.87428771  .00000266  00000-0  30043-4 0  9998","MEAN_ANOMALY":"106.7522","RA_OF_ASC_NODE":"27.2175","RCS_SIZE":"LARGE","FILE":"3522469","TIME_SYSTEM":"UTC","GP_ID":"208931259","APOAPSIS":"574.199","MEAN_ELEMENT_THEORY":"SGP4","BSTAR":"0.00003004300000","REV_AT_EPOCH":"4798","SEMIMAJOR_AXIS":"6950.174","TLE_LINE2":"2 49133  69.9999  27.2175 0003108 253.3297 106.7522 14.98336218 47986"},{"ELEMENT_SET_NO":"999","TLE_LINE1":"1 49134U 21082E   22207.86952672 -.00000586  00000-0 -41309-4 0  9994","MEAN_ANOMALY":"97.3427","EPOCH":"2022-07-26T20:52:07.108608","DECAY_DATE":null,"PERIAPSIS":"569.978","NORAD_CAT_ID":"49134","PERIOD":"96.107","REV_AT_EPOCH":"4918","BSTAR":"-0.00004130900000","TLE_LINE2":"2 49134  70.0012  27.2292 0002984 262.7393  97.3427 14.98331970 49181","SEMIMAJOR_AXIS":"6950.187","TIME_SYSTEM":"UTC","FILE":"3522469","RA_OF_ASC_NODE":"27.2292","RCS_SIZE":"LARGE","APOAPSIS":"574.126","GP_ID":"208930007","MEAN_ELEMENT_THEORY":"SGP4","LAUNCH_DATE":"2021-09-14","SITE":"AFWTR","MEAN_MOTION_DDOT":"0.0000000000000","CENTER_NAME":"EARTH","OBJECT_TYPE":"PAYLOAD","EPHEMERIS_TYPE":"0","CLASSIFICATION_TYPE":"U","MEAN_MOTION_DOT":"-0.00000586","INCLINATION":"70.0012","REF_FRAME":"TEME","COUNTRY_CODE":"US","OBJECT_NAME":"STARLINK-3078","ECCENTRICITY":"0.00029840","OBJECT_ID":"2021-082E","MEAN_MOTION":"14.98331970","ARG_OF_PERICENTER":"262.7393"},{"PERIAPSIS":"574.818","PERIOD":"96.211","NORAD_CAT_ID":"49135","EPOCH":"2022-07-26T19:59:09.828960","DECAY_DATE":null,"MEAN_ANOMALY":"98.2570","ELEMENT_SET_NO":"999","TLE_LINE1":"1 49135U 21082F   22207.83275265 -.00000186  00000-0 -82514-5 0  9998","MEAN_ELEMENT_THEORY":"SGP4","RCS_SIZE":"LARGE","RA_OF_ASC_NODE":"346.8523","FILE":"3522469","TIME_SYSTEM":"UTC","GP_ID":"208930758","APOAPSIS":"579.290","BSTAR":"-0.00000825140000","REV_AT_EPOCH":"4898","SEMIMAJOR_AXIS":"6955.189","TLE_LINE2":"2 49135  69.9992 346.8523 0003215 261.8224  98.2570 14.96715885 48989","OBJECT_TYPE":"PAYLOAD","CLASSIFICATION_TYPE":"U","EPHEMERIS_TYPE":"0","CENTER_NAME":"EARTH","LAUNCH_DATE":"2021-09-14","MEAN_MOTION_DDOT":"0.0000000000000","SITE":"AFWTR","OBJECT_ID":"2021-082F","ECCENTRICITY":"0.00032150","ARG_OF_PERICENTER":"261.8224","MEAN_MOTION":"14.96715885","REF_FRAME":"TEME","INCLINATION":"69.9992","COUNTRY_CODE":"US","OBJECT_NAME":"STARLINK-3073","MEAN_MOTION_DOT":"-0.00000186"},{"EPHEMERIS_TYPE":"0","CLASSIFICATION_TYPE":"U","OBJECT_TYPE":"PAYLOAD","CENTER_NAME":"EARTH","SITE":"AFWTR","MEAN_MOTION_DDOT":"0.0000000000000","LAUNCH_DATE":"2021-09-14","MEAN_MOTION":"14.96723722","ARG_OF_PERICENTER":"252.3489","ECCENTRICITY":"0.00032900","OBJECT_ID":"2021-082G","COUNTRY_CODE":"US","OBJECT_NAME":"STARLINK-3084","INCLINATION":"70.0007","REF_FRAME":"TEME","MEAN_MOTION_DOT":"0.00001140","NORAD_CAT_ID":"49136","PERIOD":"96.210","PERIAPSIS":"574.741","DECAY_DATE":null,"EPOCH":"2022-07-26T20:51:56.430432","MEAN_ANOMALY":"107.7310","TLE_LINE1":"1 49136U 21082G   22207.86940313  .00001140  00000-0  10760-3 0  9996","ELEMENT_SET_NO":"999","MEAN_ELEMENT_THEORY":"SGP4","APOAPSIS":"579.318","GP_ID":"208931009","FILE":"3522469","TIME_SYSTEM":"UTC","RCS_SIZE":"LARGE","RA_OF_ASC_NODE":"7.0163","SEMIMAJOR_AXIS":"6955.165","TLE_LINE2":"2 49136  70.0007   7.0163 0003290 252.3489 107.7310 14.96723722 48490","REV_AT_EPOCH":"4849","BSTAR":"0.00010760000000"},{"MEAN_ELEMENT_THEORY":"SGP4","APOAPSIS":"579.182","GP_ID":"208931760","TIME_SYSTEM":"UTC","FILE":"3522469","RCS_SIZE":"LARGE","RA_OF_ASC_NODE":"7.0405","TLE_LINE2":"2 49137  70.0012   7.0405 0003112 257.0508 103.0303 14.96727768 48487","SEMIMAJOR_AXIS":"6955.152","REV_AT_EPOCH":"4848","BSTAR":"0.00015573000000","NORAD_CAT_ID":"49137","PERIOD":"96.210","PERIAPSIS":"574.853","DECAY_DATE":null,"EPOCH":"2022-07-26T20:47:06.885888","MEAN_ANOMALY":"103.0303","TLE_LINE1":"1 49137U 21082H   22207.86605192  .00001692  00000-0  15573-3 0  9999","ELEMENT_SET_NO":"999","MEAN_MOTION":"14.96727768","ARG_OF_PERICENTER":"257.0508","ECCENTRICITY":"0.00031120","OBJECT_ID":"2021-082H","OBJECT_NAME":"STARLINK-3055","COUNTRY_CODE":"US","INCLINATION":"70.0012","REF_FRAME":"TEME","MEAN_MOTION_DOT":"0.00001692","EPHEMERIS_TYPE":"0","CLASSIFICATION_TYPE":"U","OBJECT_TYPE":"PAYLOAD","CENTER_NAME":"EARTH","MEAN_MOTION_DDOT":"0.0000000000000","SITE":"AFWTR","LAUNCH_DATE":"2021-09-14"},{"OBJECT_ID":"2021-082J","ECCENTRICITY":"0.00031110","ARG_OF_PERICENTER":"252.7339","MEAN_MOTION":"14.98325892","MEAN_MOTION_DOT":"-0.00000306","REF_FRAME":"TEME","INCLINATION":"70.0012","COUNTRY_CODE":"US","OBJECT_NAME":"STARLINK-3058","OBJECT_TYPE":"PAYLOAD","CLASSIFICATION_TYPE":"U","EPHEMERIS_TYPE":"0","LAUNCH_DATE":"2021-09-14","SITE":"AFWTR","MEAN_MOTION_DDOT":"0.0000000000000","CENTER_NAME":"EARTH","RCS_SIZE":"LARGE","RA_OF_ASC_NODE":"27.2398","FILE":"3522469","TIME_SYSTEM":"UTC","GP_ID":"208930508","APOAPSIS":"574.233","MEAN_ELEMENT_THEORY":"SGP4","BSTAR":"-0.00001785100000","REV_AT_EPOCH":"4798","TLE_LINE2":"2 49138  70.0012  27.2398 0003111 252.7339 107.3480 14.98325892 47987","SEMIMAJOR_AXIS":"6950.206","EPOCH":"2022-07-26T20:45:15.158592","DECAY_DATE":null,"PERIAPSIS":"569.908","PERIOD":"96.107","NORAD_CAT_ID":"49138","ELEMENT_SET_NO":"999","TLE_LINE1":"1 49138U 21082J   22207.86475878 -.00000306  00000-0 -17851-4 0  9991","MEAN_ANOMALY":"107.3480"},{"MEAN_ANOMALY":"92.1329","TLE_LINE1":"1 49139U 21082K   22207.82299616 -.00000479  00000-0 -33854-4 0  9994","ELEMENT_SET_NO":"999","PERIOD":"96.211","NORAD_CAT_ID":"49139","PERIAPSIS":"574.918","DECAY_DATE":null,"EPOCH":"2022-07-26T19:45:06.868224","SEMIMAJOR_AXIS":"6955.195","TLE_LINE2":"2 49139  69.9999 346.8781 0003081 267.9477  92.1329 14.96713759 48976","BSTAR":"-0.00003385400000","REV_AT_EPOCH":"4897","MEAN_ELEMENT_THEORY":"SGP4","GP_ID":"208930258","APOAPSIS":"579.203","RCS_SIZE":"LARGE","RA_OF_ASC_NODE":"346.8781","FILE":"3522469","TIME_SYSTEM":"UTC","CENTER_NAME":"EARTH","SITE":"AFWTR","MEAN_MOTION_DDOT":"0.0000000000000","LAUNCH_DATE":"2021-09-14","CLASSIFICATION_TYPE":"U","EPHEMERIS_TYPE":"0","OBJECT_TYPE":"PAYLOAD","OBJECT_NAME":"STARLINK-3057","COUNTRY_CODE":"US","REF_FRAME":"TEME","INCLINATION":"69.9999","MEAN_MOTION_DOT":"-0.00000479","ARG_OF_PERICENTER":"267.9477","MEAN_MOTION":"14.96713759","OBJECT_ID":"2021-082K","ECCENTRICITY":"0.00030810"},{"EPHEMERIS_TYPE":"0","CLASSIFICATION_TYPE":"U","OBJECT_TYPE":"PAYLOAD","MEAN_MOTION_DDOT":"0.0000000000000","SITE":"AFWTR","LAUNCH_DATE":"2021-09-14","CENTER_NAME":"EARTH","ARG_OF_PERICENTER":"264.1728","MEAN_MOTION":"14.96707662","OBJECT_ID":"2021-082L","ECCENTRICITY":"0.00030940","MEAN_MOTION_DOT":"-0.00000423","OBJECT_NAME":"STARLINK-3118","COUNTRY_CODE":"US","REF_FRAME":"TEME","INCLINATION":"70.0002","DECAY_DATE":null,"EPOCH":"2022-07-26T19:31:06.328416","PERIOD":"96.211","NORAD_CAT_ID":"49140","PERIAPSIS":"574.927","TLE_LINE1":"1 49140U 21082L   22207.81326769 -.00000423  00000-0 -28932-4 0  9995","ELEMENT_SET_NO":"999","MEAN_ANOMALY":"95.9077","GP_ID":"208931510","APOAPSIS":"579.231","RCS_SIZE":"LARGE","RA_OF_ASC_NODE":"346.9020","TIME_SYSTEM":"UTC","FILE":"3522469","MEAN_ELEMENT_THEORY":"SGP4","SEMIMAJOR_AXIS":"6955.214","TLE_LINE2":"2 49140  70.0002 346.9020 0003094 264.1728  95.9077 14.96707662 48972","BSTAR":"-0.00002893200000","REV_AT_EPOCH":"4897"}];
